$$SOE
2461295.500000000, A.D. 2026-Sep-12 00:00:00.0000, -1.673234232059456E+08, -3.430724782396951E+08, 2.824778299739459E+07,
2461302.500000000, A.D. 2026-Sep-19 00:00:00.0000, -1.571625565305531E+08, -3.471597819649176E+08, 2.868834800142197E+07,
2461309.500000000, A.D. 2026-Sep-26 00:00:00.0000, -1.468649902754133E+08, -3.509451513299565E+08, 2.910396014090988E+07,
2461316.500000000, A.D. 2026-Oct-03 00:00:00.0000, -1.364390709825885E+08, -3.544238359541589E+08, 2.949413687982205E+07,
2461323.500000000, A.D. 2026-Oct-10 00:00:00.0000, -1.258933225944842E+08, -3.575912699998486E+08, 2.985841008128671E+07,
2461330.500000000, A.D. 2026-Oct-17 00:00:00.0000, -1.152364454312771E+08, -3.604430787308877E+08, 3.019632659589905E+07,
2461337.500000000, A.D. 2026-Oct-24 00:00:00.0000, -1.044773149676363E+08, -3.629750854023513E+08, 3.050744886428954E+07,
2461344.500000000, A.D. 2026-Oct-31 00:00:00.0000, -9.362498028956334E+07, -3.651833185481775E+08, 3.079135551995610E+07,
2461351.500000000, A.D. 2026-Nov-07 00:00:00.0000, -8.268866187124041E+07, -3.670640195911123E+08, 3.104764196770091E+07,
2461358.500000000, A.D. 2026-Nov-14 00:00:00.0000, -7.167774844907078E+07, -3.686136498842309E+08, 3.127592099198058E+07,
2461365.500000000, A.D. 2026-Nov-21 00:00:00.0000, -6.060179478173174E+07, -3.698288964964891E+08, 3.147582361696453E+07,
2461372.500000000, A.D. 2026-Nov-28 00:00:00.0000, -4.947052126957556E+07, -3.707066797425114E+08, 3.164700006349964E+07,
2461379.500000000, A.D. 2026-Dec-05 00:00:00.0000, -3.829381178794044E+07, -3.712441631058690E+08, 3.178912041700695E+07,
2461386.500000000, A.D. 2026-Dec-12 00:00:00.0000, -2.708170954428498E+07, -3.714387624379357E+08, 3.190187524547109E+07,
2461393.500000000, A.D. 2026-Dec-19 00:00:00.0000, -1.584441282144503E+07, -3.712881544160497E+08, 3.198497634100477E+07,
2461400.500000000, A.D. 2026-Dec-26 00:00:00.0000, -4.592270723926999E+06, -3.707902851162769E+08, 3.203815752658540E+07,
2461407.500000000, A.D. 2027-Jan-02 00:00:00.0000, 6.664221374190455E+06, -3.699433788764855E+08, 3.206117548615463E+07,
2461414.500000000, A.D. 2027-Jan-09 00:00:00.0000, 1.791442682245829E+07, -3.687459474116176E+08, 3.205381060759057E+07,
2461421.500000000, A.D. 2027-Jan-16 00:00:00.0000, 2.914757319010256E+07, -3.671967991522243E+08, 3.201586783423269E+07,
2461428.500000000, A.D. 2027-Jan-23 00:00:00.0000, 4.035275833754321E+07, -3.652950488248128E+08, 3.194717751577465E+07,
2461435.500000000, A.D. 2027-Jan-30 00:00:00.0000, 5.151895727676120E+07, -3.630401272995991E+08, 3.184759623588389E+07,
2461442.500000000, A.D. 2027-Feb-06 00:00:00.0000, 6.263503026950821E+07, -3.604317913409358E+08, 3.171700760370553E+07,
2461449.500000000, A.D. 2027-Feb-13 00:00:00.0000, 7.368973172629873E+07, -3.574701320124183E+08, 3.155532314895585E+07,
2461456.500000000, A.D. 2027-Feb-20 00:00:00.0000, 8.467171756504489E+07, -3.541555824945459E+08, 3.136248346979570E+07,
2461463.500000000, A.D. 2027-Feb-27 00:00:00.0000, 9.556955244883680E+07, -3.504889284913832E+08, 3.113845923923272E+07,
2461470.500000000, A.D. 2027-Mar-06 00:00:00.0000, 1.063717199451841E+08, -3.464713192662428E+08, 3.088325194711322E+07,
2461477.500000000, A.D. 2027-Mar-13 00:00:00.0000, 1.170666340287122E+08, -3.421042772189719E+08, 3.059689468911217E+07,
2461484.500000000, A.D. 2027-Mar-20 00:00:00.0000, 1.276426508172560E+08, -3.373897067982390E+08, 3.027945303502135E+07,
2461491.500000000, A.D. 2027-Mar-27 00:00:00.0000, 1.380880807595214E+08, -3.323299032530306E+08, 2.993102590951583E+07,
2461498.500000000, A.D. 2027-Apr-03 00:00:00.0000, 1.483912014889141E+08, -3.269275612223260E+08, 2.955174645883778E+07,
2461505.500000000, A.D. 2027-Apr-10 00:00:00.0000, 1.585402714115726E+08, -3.211857830849838E+08, 2.914178289437269E+07,
2461512.500000000, A.D. 2027-Apr-17 00:00:00.0000, 1.685235440549017E+08, -3.151080870216966E+08, 2.870133930308627E+07,
2461519.500000000, A.D. 2027-Apr-24 00:00:00.0000, 1.783292832616298E+08, -3.086984147841873E+08, 2.823065640520673E+07,
2461526.500000000, A.D. 2027-May-01 00:00:00.0000, 1.879457795369771E+08, -3.019611390792956E+08, 2.773001222822081E+07,
2461533.500000000, A.D. 2027-May-08 00:00:00.0000, 1.973613678608511E+08, -2.949010697609379E+08, 2.719972272642261E+07,
2461540.500000000, A.D. 2027-May-15 00:00:00.0000, 2.065644454632012E+08, -2.875234578194298E+08, 2.664014255775292E+07,
2461547.500000000, A.D. 2027-May-22 00:00:00.0000, 2.155434879831774E+08, -2.798339996968970E+08, 2.605166594450617E+07,
2461554.500000000, A.D. 2027-May-29 00:00:00.0000, 2.242870673464232E+08, -2.718388433272318E+08, 2.543472718367933E+07,
2461561.500000000, A.D. 2027-Jun-05 00:00:00.0000, 2.327838722205325E+08, -2.635445926977953E+08, 2.478980097534177E+07,
2461568.500000000, A.D. 2027-Jun-12 00:00:00.0000, 2.410227290109060E+08, -2.549583104303194E+08, 2.411740278214727E+07,
2461575.500000000, A.D. 2027-Jun-19 00:00:00.0000, 2.489926230291669E+08, -2.460875192444909E+08, 2.341808916747932E+07,
2461582.500000000, A.D. 2027-Jun-26 00:00:00.0000, 2.566827200704449E+08, -2.369402024941250E+08, 2.269245805881312E+07,
2461589.500000000, A.D. 2027-Jul-03 00:00:00.0000, 2.640823884821165E+08, -2.275248036976286E+08, 2.194114891862768E+07,
2461596.500000000, A.D. 2027-Jul-10 00:00:00.0000, 2.711812217041767E+08, -2.178502249863684E+08, 2.116484281415965E+07,
2461603.500000000, A.D. 2027-Jul-17 00:00:00.0000, 2.779690612526729E+08, -2.079258244445759E+08, 2.036426237336335E+07,
2461610.500000000, A.D. 2027-Jul-24 00:00:00.0000, 2.844360202294818E+08, -1.977614123398251E+08, 1.954017160122392E+07,
2461617.500000000, A.D. 2027-Jul-31 00:00:00.0000, 2.905725076917410E+08, -1.873672459473773E+08, 1.869337553216991E+07,
2461624.500000000, A.D. 2027-Aug-07 00:00:00.0000, 2.963692535988917E+08, -1.767540217638209E+08, 1.782471982687308E+07,
2461631.500000000, A.D. 2027-Aug-14 00:00:00.0000, 3.018173319458765E+08, -1.659328653206130E+08, 1.693509049977209E+07,
2461638.500000000, A.D. 2027-Aug-21 00:00:00.0000, 3.069081825966526E+08, -1.549153219223430E+08, 1.602541344036244E+07,
2461645.500000000, A.D. 2027-Aug-28 00:00:00.0000, 3.116336351371205E+08, -1.437133470687558E+08, 1.509665350654548E+07,
2461652.500000000, A.D. 2027-Sep-04 00:00:00.0000, 3.159859334517986E+08, -1.323392940281278E+08, 1.414981349885807E+07,
2461659.500000000, A.D. 2027-Sep-11 00:00:00.0000, 3.199577595105845E+08, -1.208058992021826E+08, 1.318593308655080E+07,
2461666.500000000, A.D. 2027-Sep-18 00:00:00.0000, 3.235422563772042E+08, -1.091262659199345E+08, 1.220608761814894E+07,
2461673.500000000, A.D. 2027-Sep-25 00:00:00.0000, 3.267330505455067E+08, -9.731384673537229E+07, 1.121138678834227E+07,
2461680.500000000, A.D. 2027-Oct-02 00:00:00.0000, 3.295242735555573E+08, -8.538242421106967E+07, 1.020297315695982E+07,
2461687.500000000, A.D. 2027-Oct-09 00:00:00.0000, 3.319105827880810E+08, -7.334609021547842E+07, 9.182020518984374E+06,
2461694.500000000, A.D. 2027-Oct-16 00:00:00.0000, 3.338871813746377E+08, -6.121922382596505E+07, 8.149732117375011E+06,
2461701.500000000, A.D. 2027-Oct-23 00:00:00.0000, 3.354498373536945E+08, -4.901646789299235E+07, 7.107338676698457E+06,
2461708.500000000, A.D. 2027-Oct-30 00:00:00.0000, 3.365949023151610E+08, -3.675270371270701E+07, 6.056096276133653E+06,
2461715.500000000, A.D. 2027-Nov-06 00:00:00.0000, 3.373193282469352E+08, -2.444302274588763E+07, 4.997284266214523E+06,
2461722.500000000, A.D. 2027-Nov-13 00:00:00.0000, 3.376206804855560E+08, -1.210269754369318E+07, 3.932203248625265E+06,
2461729.500000000, A.D. 2027-Nov-20 00:00:00.0000, 3.374971495571168E+08, 2.528458357806186E+05, 2.862172680655674E+06,
2461736.500000000, A.D. 2027-Nov-27 00:00:00.0000, 3.369475634130944E+08, 1.260805678111448E+07, 1.788528205739048E+06,
2461743.500000000, A.D. 2027-Dec-04 00:00:00.0000, 3.359713979383895E+08, 2.494729125224008E+07, 7.126189797784016E+05,
2461750.500000000, A.D. 2027-Dec-11 00:00:00.0000, 3.345687850941413E+08, 3.725484398744234E+07, -3.641950245040562E+05,
2461757.500000000, A.D. 2027-Dec-18 00:00:00.0000, 3.327405188944145E+08, 4.951498131864894E+07, -1.440545776858319E+06,
2461764.500000000, A.D. 2027-Dec-25 00:00:00.0000, 3.304880593045543E+08, 6.171197444844086E+07, -2.515060014666837E+06,
2461771.500000000, A.D. 2028-Jan-01 00:00:00.0000, 3.278135340497965E+08, 7.383013304975057E+07, -3.586362124255713E+06,
$$EOE